ONEWEB-0328             
1 49197U 21083M   25173.58700040  .00000183  00000+0  46660-3 0  9992
2 49197  87.8955  31.6605 0001873  80.3775 279.7565 13.13469296184989
ONEWEB-0331             
1 49198U 21083N   25173.64549453  .00006374  00000+0  16109-1 0  9990
2 49198  87.9131  46.8962 0001692  69.5114 290.6200 13.18748542182622
ONEWEB-0333             
1 49199U 21083P   25173.88663277  .00000156  00000+0  39260-3 0  9995
2 49199  87.8966  31.6671 0001771  86.0631 274.0700 13.13469960185031
ONEWEB-0334             
1 49200U 21083Q   25174.43413065  .00000094  00000+0  19916-3 0  9995
2 49200  87.9257 345.9262 0002545 113.0044 247.1358 13.20771724190728
ONEWEB-0335             
1 49201U 21083R   25173.88155117  .00000039  00000+0  71229-4 0  9990
2 49201  87.8966  31.6566 0001628  79.1678 280.9634 13.13469895185043
ONEWEB-0336             
1 49202U 21083S   25174.30983581 -.00000080  00000+0 -25439-3 0  9992
2 49202  87.8966  31.5645 0001664  86.1372 273.9948 13.13469423185104
ONEWEB-0337             
1 49203U 21083T   25173.55808029 -.00000284  00000+0 -81156-3 0  9996
2 49203  87.8967  31.7131 0001854  78.0078 282.1259 13.13469115183701
ONEWEB-0338             
1 49204U 21083U   25173.95434255  .00000174  00000+0  39616-3 0  9997
2 49204  87.9259 346.0119 0002084 100.1530 259.9839 13.20773289190691
ONEWEB-0339             
1 49205U 21083V   25173.56668162 -.00000211  00000+0 -61343-3 0  9997
2 49205  87.8963  31.6986 0001931  83.5217 276.6132 13.13469470183687
ONEWEB-0340             
1 49206U 21083W   25174.39010614 -.00000011  00000+0 -60574-4 0  9997
2 49206  87.9139  46.7486 0001746  79.0692 281.0637 13.18694402183979
ONEWEB-0341             
1 49207U 21083X   25174.39786691  .00005312  00000+0  13414-1 0  9998
2 49207  87.9139  46.7577 0002271  71.9827 288.1552 13.18776858183998
ONEWEB-0342             
1 49208U 21083Y   25174.49094535  .00000070  00000+0  14137-3 0  9990
2 49208  87.9252 345.8838 0001928  95.4036 264.7318 13.20772838190736
ONEWEB-0343             
1 49209U 21083Z   25173.40683385  .00004311  00000+0  10889-1 0  9998
2 49209  87.9142  46.9421 0002462  79.6409 280.5000 13.18729267182622
ONEWEB-0344             
1 49210U 21083AA  25173.56160083 -.00000344  00000+0 -97758-3 0  9998
2 49210  87.8967  31.7389 0002074  73.2332 286.9025 13.13468897183685
ONEWEB-0345             
1 49211U 21083AB  25174.54344762 -.00000079  00000+0 -25144-3 0  9991
2 49211  87.8961  31.4964 0002079  72.0684 288.0672 13.13470463185122
ONEWEB-0346             
1 49212U 21083AC  25174.40262541  .00003922  00000+0  98991-2 0  9998
2 49212  87.9139  46.7655 0001243  70.3572 289.7694 13.18767126183980
ONEWEB-0348             
1 49213U 21083AD  25174.40572006 -.00000005  00000+0 -44260-4 0  9992
2 49213  87.9262 345.9081 0001709  72.8622 287.2698 13.20773008190754
ONEWEB-0350             
1 49214U 21083AE  25173.56244834 -.00000247  00000+0 -71204-3 0  9999
2 49214  87.8962  31.6825 0001961  74.8412 285.2934 13.13470776183723
ONEWEB-0351             
1 49215U 21083AF  25173.94473547  .00000050  00000+0  91839-4 0  9994
2 49215  87.9257 345.9829 0002651  99.2090 260.9343 13.20770815190667
ONEWEB-0352             
1 49216U 21083AG  25174.30475551  .00000086  00000+0  20148-3 0  9996
2 49216  87.8966  31.5766 0002221  89.6691 270.4693 13.13468715185219
ONEWEB-0354             
1 49217U 21083AH  25174.42465848  .00000103  00000+0  22106-3 0  9994
2 49217  87.9262 345.8855 0001859  83.0450 277.0895 13.20772793190762
ONEWEB-0355             
1 49218U 21083AJ  25174.56220487 -.00000219  00000+0 -63447-3 0  9991
2 49218  87.8964  31.5230 0002030  81.9810 278.1549 13.13469217185124
ONEWEB-0357             
1 49219U 21083AK  25173.43666448  .00000115  00000+0  25136-3 0  9994
2 49219  87.9259 346.0879 0002035  92.0309 268.1058 13.20772952189328
ONEWEB-0332             
1 49279U 21090A   25173.48597899 -.00000026  00000+0 -10536-3 0  9997
2 49279  87.9030   1.2835 0001960  96.7437 263.3916 13.14502634180324
ONEWEB-0347             
1 49280U 21090B   25174.48779771  .00000079  00000+0  16319-3 0  9992
2 49280  87.9261 345.8872 0001786 104.4582 255.6750 13.20773027183690
ONEWEB-0349             
1 49281U 21090C   25173.45876197  .00000048  00000+0  86379-4 0  9999
2 49281  87.9263 346.0979 0001942  92.6976 267.4379 13.20773014182348
ONEWEB-0353             
1 49282U 21090D   25174.46758194 -.00000199  00000+0 -56995-3 0  9997
2 49282  87.9032   1.0748 0001831  98.2404 261.8933 13.14501506181745
ONEWEB-0356             
1 49283U 21090E   25173.45717255  .00000074  00000+0  14951-3 0  9995
2 49283  87.9261 346.0891 0000914  95.0114 265.1124 13.20774182182340
ONEWEB-0358             
1 49284U 21090F   25174.47201731 -.00001124  00000+0 -27980-2 0  9990
2 49284  87.9259 345.8772 0001849  89.7487 270.3858 13.20764073184492
ONEWEB-0359             
1 49285U 21090G   25174.46886803  .00001096  00000+0  26625-2 0  9990
2 49285  87.9262 345.8902 0001808  79.8724 280.2614 13.20765178184465
ONEWEB-0360             
1 49286U 21090H   25174.45937921 -.00000022  00000+0 -86783-4 0  9991
2 49286  87.9263 345.8981 0001864  87.8339 272.3007 13.20772861183786
ONEWEB-0361             
1 49287U 21090J   25173.45560361  .00000118  00000+0  25855-3 0  9997
2 49287  87.9260 346.0930 0001669  93.4869 266.6455 13.20772961182812
ONEWEB-0362             
1 49288U 21090K   25173.80562912  .00000054  00000+0  10315-3 0  9995
2 49288  87.9216  16.4337 0002030  86.3623 273.7742 13.19725158179510
ONEWEB-0363             
1 49289U 21090L   25173.47138362  .00000068  00000+0  13528-3 0  9991
2 49289  87.9259 346.0850 0001442  88.9707 271.1592 13.20773402182827
ONEWEB-0364             
1 49290U 21090M   25174.41834039  .00000161  00000+0  36420-3 0  9992
2 49290  87.9262 345.9269 0001635  95.3621 264.7699 13.20773202184901
ONEWEB-0365             
1 49291U 21090N   25173.81509616  .00000100  00000+0  21811-3 0  9997
2 49291  87.9207  16.3873 0001899  90.4681 269.6669 13.19726762179020
ONEWEB-0366             
1 49292U 21090P   25172.48534842 -.00000101  00000+0 -30608-3 0  9996
2 49292  87.9032   1.4814 0001770  88.4080 271.7252 13.14501951180171
ONEWEB-0367             
1 49293U 21090Q   25173.46981005  .00000070  00000+0  14011-3 0  9996
2 49293  87.9260 346.0806 0002061  93.4129 266.7240 13.20773207182342
ONEWEB-0368             
1 49294U 21090R   25174.42782064  .00000038  00000+0  60983-4 0  9992
2 49294  87.9263 345.9233 0001627 120.2769 239.8526 13.20772419184922
ONEWEB-0369             
1 49295U 21090S   25173.96198879 -.00000203  00000+0 -54017-3 0  9992
2 49295  87.9215  16.3871 0001861  90.6455 269.4891 13.19725340180322
ONEWEB-0370             
1 49296U 21090T   25173.40352030  .00000011  00000+0 -49797-5 0  9990
2 49296  87.9260 346.0990 0002100  85.3546 274.7827 13.20771440182376
ONEWEB-0371             
1 49297U 21090U   25173.81825253  .00000043  00000+0  75289-4 0  9996
2 49297  87.9214  16.4050 0001928  88.6409 271.4945 13.19727015179055
ONEWEB-0372             
1 49298U 21090V   25174.45291997 -.00000061  00000+0 -18161-3 0  9997
2 49298  87.9264 345.9000 0001899  97.2335 262.9014 13.20772960183785
ONEWEB-0373             
1 49299U 21090W   25174.47989804 -.00000001  00000+0 -35257-4 0  9991
2 49299  87.9262 345.9057 0001619  94.9525 265.1793 13.20772771184972
ONEWEB-0374             
1 49300U 21090X   25173.46218376 -.00000022  00000+0 -94687-4 0  9996
2 49300  87.9032   1.2679 0001223  95.8005 264.3264 13.14502950180306
ONEWEB-0375             
1 49301U 21090Y   25173.48243436 -.00000011  00000+0 -58758-4 0  9991
2 49301  87.9260 346.0814 0001301  79.3641 280.7639 13.20772599183048
ONEWEB-0376             
1 49302U 21090Z   25174.57484699  .00000014  00000+0  17458-5 0  9995
2 49302  87.9209  16.2391 0001997  93.5861 266.5500 13.19727234180434
ONEWEB-0377             
1 49303U 21090AA  25174.45322325  .00000005  00000+0 -19511-4 0  9992
2 49303  87.9263 345.8817 0001853  84.0398 276.0947 13.20771984184449
ONEWEB-0378             
1 49304U 21090AB  25173.94499449  .00000031  00000+0  43566-4 0  9993
2 49304  87.9263 345.9904 0001684  93.2962 266.8364 13.20770657183680
ONEWEB-0379             
1 49305U 21090AC  25173.00073240 -.00000054  00000+0 -17948-3 0  9999
2 49305  87.9034   1.3645 0001776  93.2291 266.9042 13.14502246180242
ONEWEB-0380             
1 49306U 21090AD  25173.96516078  .00000054  00000+0  10279-3 0  9994
2 49306  87.9215  16.3880 0001761  81.8912 278.2421 13.19724389180323
ONEWEB-0381             
1 49307U 21090AE  25173.76811197 -.00000008  00000+0 -52709-4 0  9999
2 49307  87.9263 346.0261 0001593  87.8028 272.3288 13.20772927182387
ONEWEB-0382             
1 49308U 21090AF  25173.45244726  .00000146  00000+0  32723-3 0  9998
2 49308  87.9263 346.0829 0001481  97.9632 262.1669 13.20772222182330
ONEWEB-0383             
1 49309U 21090AG  25172.99438398  .00000092  00000+0  21298-3 0  9992
2 49309  87.9030   1.3461 0001700  94.7498 265.3826 13.14502280180274
ONEWEB-0384             
1 49310U 21090AH  25173.44848237  .00000043  00000+0  72994-4 0  9998
2 49310  87.9265 346.1006 0001339  98.5532 261.5753 13.20785782182344
ONEWEB-0385             
1 49311U 21090AJ  25173.44455781 -.00000393  00000+0 -99939-3 0  9994
2 49311  87.9262 346.1023 0001775  93.4093 266.7243 13.20775240182317
ONEWEB-0386             
1 49312U 21090AK  25173.46190766  .00000114  00000+0  24812-3 0  9993
2 49312  87.9255 346.0691 0001559  96.3162 263.8149 13.20771182182335
ONEWEB-0387             
1 49313U 21090AL  25173.44613362  .00000016  00000+0  80800-5 0  9996
2 49313  87.9245 346.1338 0001647  83.2444 276.8876 13.20772287182338
ONEWEB-0388             
1 49314U 21090AM  25173.80878992  .00000045  00000+0  80444-4 0  9994
2 49314  87.9219  16.4248 0001711  87.9230 272.2098 13.19724447179013
